{
    "links": {
        "self": "http://www.neowsapp.com/rest/v1/neo/3837740?api_key=iIulBulltgU6a56xZRHN4H3l9WmuAYTsLGpBGhQ2"
    },
    "id": "3837740",
    "neo_reference_id": "3837740",
    "name": "(2019 AJ7)",
    "designation": "2019 AJ7",
    "nasa_jpl_url": "http://ssd.jpl.nasa.gov/sbdb.cgi?sstr=3837740",
    "absolute_magnitude_h": 20.6,
    "estimated_diameter": {
        "kilometers": {
            "estimated_diameter_min": 0.2016299194,
            "estimated_diameter_max": 0.4508582062
        },
        "meters": {
            "estimated_diameter_min": 201.6299194428,
            "estimated_diameter_max": 450.8582061718
        },
        "miles": {
            "estimated_diameter_min": 0.1252869847,
            "estimated_diameter_max": 0.2801502144
        },
        "feet": {
            "estimated_diameter_min": 661.5155049046,
            "estimated_diameter_max": 1479.1936371367
        }
    },
    "is_potentially_hazardous_asteroid": false,
    "close_approach_data": [
        {
            "close_approach_date": "2008-01-19",
            "close_approach_date_full": "2008-Jan-19 14:54",
            "epoch_date_close_approach": 1200754440000,
            "relative_velocity": {
                "kilometers_per_second": "17.2402263485",
                "kilometers_per_hour": "62064.8148547595",
                "miles_per_hour": "38564.6623190587"
            },
            "miss_distance": {
                "astronomical": "0.3356908782",
                "lunar": "130.5837516198",
                "kilometers": "50218640.357149434",
                "miles": "31204416.1499288292"
            },
            "orbiting_body": "Earth"
        },
        {
            "close_approach_date": "2028-01-20",
            "close_approach_date_full": "2028-Jan-20 15:19",
            "epoch_date_close_approach": 1831994340000,
            "relative_velocity": {
                "kilometers_per_second": "17.8983977937",
                "kilometers_per_hour": "64434.232057253",
                "miles_per_hour": "40036.9260246859"
            },
            "miss_distance": {
                "astronomical": "0.3071315545",
                "lunar": "119.4741747005",
                "kilometers": "45946226.362988915",
                "miles": "28549661.196580427"
            },
            "orbiting_body": "Earth"
        },
        {
            "close_approach_date": "2048-01-20",
            "close_approach_date_full": "2048-Jan-20 16:58",
            "epoch_date_close_approach": 2463152280000,
            "relative_velocity": {
                "kilometers_per_second": "19.0868140741",
                "kilometers_per_hour": "68712.5306668892",
                "miles_per_hour": "42695.2944024346"
            },
            "miss_distance": {
                "astronomical": "0.3564310206",
                "lunar": "138.6516670134",
                "kilometers": "53321321.483686122",
                "miles": "33132332.8032756036"
            },
            "orbiting_body": "Earth"
        }
    ],
    "orbital_data": {
        "orbit_id": "3",
        "orbit_determination_date": "2020-09-08 06:50:48",
        "first_observation_date": "2019-01-07",
        "last_observation_date": "2019-01-26",
        "data_arc_in_days": 19,
        "observations_used": 27,
        "orbit_uncertainty": "7",
        "minimum_orbit_intersection": ".306311",
        "jupiter_tisserand_invariant": "3.967",
        "epoch_osculation": "2459000.5",
        "eccentricity": ".2968659437311837",
        "semi_major_axis": "1.701140195258885",
        "inclination": "33.70706170099681",
        "ascending_node_longitude": "111.7236753264512",
        "orbital_period": "810.417081879075",
        "perihelion_distance": "1.196129605774306",
        "perihelion_argument": "51.96229692241572",
        "aphelion_distance": "2.206150784743464",
        "perihelion_time": "2458599.422528118755",
        "mean_anomaly": "178.1649142222704",
        "mean_motion": ".4442157107119279",
        "equinox": "J2000",
        "orbit_class": {
            "orbit_class_type": "AMO",
            "orbit_class_description": "Near-Earth asteroid orbits similar to that of 1221 Amor",
            "orbit_class_range": "1.017 AU < q (perihelion) < 1.3 AU"
        }
    },
    "is_sentry_object": false
}